GLOBALSTAR M067         
1 32263U 07048A   24354.93636934 -.00000092  00000+0  41630-4 0  9995
2 32263  51.9701 200.4325 0001080  34.4873 106.2960 12.40662815787477
GLOBALSTAR M070         
1 32264U 07048B   24354.33804650 -.00000069  00000+0  19170-3 0  9999
2 32264  51.9766 316.3935 0000661  56.4497 108.8091 12.62308038790951
GLOBALSTAR M066         
1 32265U 07048C   24355.01192020 -.00000102  00000+0 -27364-4 0  9991
2 32265  51.9642 186.8158 0001693  81.4003  79.4402 12.42168694794053
GLOBALSTAR M068         
1 32266U 07048D   24354.56910163 -.00000079  00000+0  13806-3 0  9994
2 32266  51.9869 129.7862 0002013 104.9988 353.2470 12.62811716794862
GLOBALSTAR M079         
1 37188U 10054A   24355.15230480 -.00000084  00000+0  11069-3 0  9991
2 37188  52.0055 324.7987 0000157  22.8642  84.7302 12.62268380654527
GLOBALSTAR M074         
1 37189U 10054B   24354.30420837 -.00000089  00000+0  83098-4 0  9992
2 37189  52.0034 326.7291 0000536  41.7854  51.0007 12.62260283654344
GLOBALSTAR M076         
1 37190U 10054C   24354.50319008 -.00000082  00000+0  12214-3 0  9997
2 37190  52.0048 326.2798 0000467   8.1466 148.2799 12.62274890654084
GLOBALSTAR M077         
1 37191U 10054D   24354.77626311 -.00000059  00000+0  24913-3 0  9998
2 37191  52.0080 282.2545 0000707  54.9625 322.4359 12.62268477655224
